[{"OBJECT_NAME":"STARLINK-11368 [DTC]","OBJECT_ID":"2024-187K","EPOCH":"2026-03-09T22:09:53.437824","MEAN_MOTION":15.6969822,"ECCENTRICITY":9.39e-5,"INCLINATION":53.1581,"RA_OF_ASC_NODE":295.3458,"ARG_OF_PERICENTER":97.7006,"MEAN_ANOMALY":262.4118,"EPHEMERIS_TYPE":0,"CLASSIFICATION_TYPE":"U","NORAD_CAT_ID":61583,"ELEMENT_SET_NO":999,"REV_AT_EPOCH":8073,"BSTAR":1.6556389e-5,"MEAN_MOTION_DOT":1.417e-5,"MEAN_MOTION_DDOT":0},{"OBJECT_NAME":"DOVE 2","OBJECT_ID":"2013-015C","EPOCH":"2026-03-09T12:05:38.052096","MEAN_MOTION":15.68794519,"ECCENTRICITY":0.00170561,"INCLINATION":64.8558,"RA_OF_ASC_NODE":101.9902,"ARG_OF_PERICENTER":280.6272,"MEAN_ANOMALY":79.2958,"EPHEMERIS_TYPE":0,"CLASSIFICATION_TYPE":"U","NORAD_CAT_ID":39132,"ELEMENT_SET_NO":999,"REV_AT_EPOCH":71099,"BSTAR":0.00072172094,"MEAN_MOTION_DOT":0.00084334,"MEAN_MOTION_DDOT":0}]
